OBJECT_NAME,OBJECT_ID,EPOCH,MEAN_MOTION,ECCENTRICITY,INCLINATION,RA_OF_ASC_NODE,ARG_OF_PERICENTER,MEAN_ANOMALY,EPHEMERIS_TYPE,CLASSIFICATION_TYPE,NORAD_CAT_ID,ELEMENT_SET_NO,REV_AT_EPOCH,BSTAR,MEAN_MOTION_DOT,MEAN_MOTION_DDOT
OSCAR 7 (AO-7),1974-089B,2026-07-10T06:51:38.058624,12.53698448,.00126625,101.9903,204.7731,87.4352,340.9074,0,U,7530,999,36341,.81096817E-4,-.33E-6,0
PHASE 3B (AO-10),1983-058B,2026-07-09T16:55:32.549376,2.05870648,.60033527,25.9319,215.8523,121.8543,310.3469,0,U,14129,999,29595,0,.106E-5,0
UOSAT 2 (UO-11),1984-021B,2026-07-09T16:56:58.956288,14.90840274,.00091678,97.8072,156.0317,106.4358,253.7868,0,U,14781,999,26048,.98723401E-4,.917E-5,0
LUSAT (LO-19),1990-005G,2026-07-09T23:54:39.065472,14.34129751,.00123476,98.8846,213.4297,135.6081,224.6095,0,U,20442,999,90566,.35474089E-4,.53E-6,0
EYESAT A (AO-27),1993-061C,2026-07-10T03:28:14.694528,14.30948234,.00090329,98.6870,258.5486,39.7683,320.4160,0,U,22825,999,71028,.30481488E-4,.35E-6,0
ITAMSAT (IO-26),1993-061D,2026-07-10T02:48:43.871616,14.31375759,.0009248,98.6818,258.4411,23.7916,336.3692,0,U,22826,999,71059,.28397099E-4,.31E-6,0
RADIO ROSTO (RS15),1994-085A,2026-07-10T06:19:55.212672,11.27583508,.01567348,64.8160,265.8960,359.6165,0.4616,0,U,23439,999,29850,.14292428E-3,-.37E-6,0
JAS-2 (FO-29),1996-046B,2026-07-10T00:12:21.677472,13.53275218,.03505668,98.5223,36.7525,37.3768,325.1213,0,U,24278,999,47625,.43570331E-4,.9E-7,0
TECHSAT 1B (GO-32),1998-043D,2026-07-09T16:22:56.830944,14.24432637,.00020377,99.0080,184.0097,123.5145,236.6227,0,U,25397,999,45453,.3417109E-4,.32E-6,0
ISS (ZARYA),1998-067A,2026-07-10T03:41:07.908864,15.48965714,.00066838,51.6302,186.4276,277.8890,82.1339,0,U,25544,999,57531,.11035045E-3,.5628E-4,0
PCSAT (NO-44),2001-043C,2026-07-09T23:58:07.321440,14.31963728,.00059716,67.0489,185.2701,266.2172,93.8247,0,U,26931,999,29371,.52979109E-4,.59E-6,0
SAUDISAT 1C (SO-50),2002-058C,2026-07-10T01:57:58.749408,14.83092603,.00746788,64.5517,58.1476,258.2262,101.0460,0,U,27607,999,26785,.75179496E-4,.486E-5,0
CUTE-1 (CO-55),2003-031E,2026-07-10T00:11:45.746304,14.24349450,.00107182,98.6739,199.2802,116.0719,244.1564,0,U,27844,999,19492,.97602803E-4,.182E-5,0
CUBESAT XI-IV (CO-57),2003-031J,2026-07-09T12:23:12.233184,14.23632552,.00103422,98.6771,198.4889,134.3964,225.8063,0,U,27848,999,19455,.91111366E-4,.164E-5,0
MOZHAETS 4 (RS22),2003-042A,2026-07-10T07:29:54.178368,14.73509472,.00108516,98.3481,16.3258,188.9112,295.9010,0,U,27939,999,21895,.12994858E-3,.791E-5,0
CUBESAT XI-V,2005-043F,2026-07-09T16:31:32.390976,14.72693331,.00150631,98.3008,346.7863,131.3789,228.8716,0,U,28895,999,10506,.15777047E-3,.955E-5,0
CUTE-1.7+APD II (CO-65),2008-021C,2026-07-10T05:59:57.377760,15.09670949,.00073762,97.8283,173.1529,319.3672,40.7005,0,U,32785,999,98867,.19860633E-3,.3132E-4,0
SEEDS II (CO-66),2008-021J,2026-07-09T12:32:17.780928,15.33534556,.00024259,97.7528,189.4990,169.7411,190.3880,0,U,32791,999,99071,.39952959E-3,.12875E-3,0
YUBILEINY (RS30),2008-025A,2026-07-10T08:33:32.336064,12.43180772,.00185468,82.5057,341.0265,260.2068,99.6918,0,U,32953,999,82257,.49888545E-3,.79E-6,0
KKS-1 (KISEKI),2009-002H,2026-07-10T06:17:28.331808,14.83182070,.00070276,98.1179,114.0700,206.0437,154.0424,0,U,33499,999,93961,.10369798E-3,.791E-5,0
SWISSCUBE,2009-051B,2026-07-10T05:23:59.772768,14.62525191,.0007597,98.4015,99.5130,132.4528,227.7317,0,U,35932,999,89252,.12813068E-3,.6E-5,0
BEESAT-1,2009-051C,2026-07-09T13:29:13.081344,14.61756321,.00057994,98.3943,98.4270,144.7622,215.3963,0,U,35933,999,89245,.11590478E-3,.529E-5,0
ITUPSAT1,2009-051E,2026-07-10T04:32:15.089856,14.60474362,.00077396,98.4025,98.2308,157.5053,202.6487,0,U,35935,999,89209,.10252703E-3,.448E-5,0
XIWANG-1 (HOPE-1),2009-072B,2026-07-10T06:31:07.400352,13.16439860,.00073886,100.4032,144.7360,175.9266,184.1908,0,U,36122,999,79604,-.31934718E-3,-.166E-5,0
O/OREOS (USA 219),2010-062C,2026-07-09T23:09:45.136800,14.93839355,.00136796,71.9708,28.7386,15.3805,344.7778,0,U,37224,999,12004,.1364878E-3,.1388E-4,0
JUGNU,2011-058B,2026-07-10T05:53:30.946848,14.13782641,.00184189,19.9589,168.3368,331.7435,144.8891,0,U,37839,999,76229,.55482074E-4,.373E-5,0
SRMSAT,2011-058D,2026-07-10T06:11:51.124704,14.11580397,.00118704,19.9719,279.8299,97.3618,287.0554,0,U,37841,999,76108,.48960392E-4,.355E-5,0
STRAND-1,2013-009E,2026-07-09T23:04:31.596384,14.37176901,.0009122,98.3931,10.6363,155.5997,204.5623,0,U,39090,999,70033,.74627277E-4,.179E-5,0
ZACUBE-1 (TSHEPISOSAT),2013-066B,2026-07-09T22:27:46.867104,15.01314452,.0043714,97.8013,153.3861,172.0573,188.1353,0,U,39417,999,68414,.1393073E-3,.1765E-4,0
GOMX-1,2013-066Q,2026-07-10T06:27:06.499008,14.69534850,.01287493,97.6478,30.2751,4.0424,356.1791,0,U,39430,999,67330,.15286554E-3,.978E-5,0
